1 45388U 20019AE  23300.89585685  .00006549  00000-0  45804-3 0  9990
2 45388  53.0535  84.3362 0001394  88.4128 271.7021 15.06409939199527
1 45388U 20019AE  23301.55932977 -.00000562  00000-0 -18822-4 0  9996
2 45388  53.0535  81.3576 0001418  98.0293 262.0857 15.06394575199639
1 45388U 20019AE  23301.75837198  .00000214  00000-0  33253-4 0  9994
2 45388  53.0536  80.4648 0001381  89.3340 270.7808 15.06394648199650
1 45388U 20019AE  23302.62087503  .00001310  00000-0  10683-3 0  9997
2 45388  53.0532  76.5927 0001616 103.9948 256.1220 15.06408594199786
1 45388U 20019AE  23302.81991734  .00005430  00000-0  38305-3 0  9996
2 45388  53.0534  75.6992 0001381  90.6968 269.4180 15.06407720199820
1 45388U 20019AE  23303.48339296  .00000454  00000-0  49377-4 0  9992
2 45388  53.0530  72.7204 0001634  90.1933 269.9243 15.06392427199921
1 45388U 20019AE  23303.74878211 -.00000515  00000-0 -15702-4 0  9991
2 45388  53.0539  71.5291 0001423  85.6550 274.4602 15.06390497199951
1 45388U 20019AE  23304.54493912  .00002377  00000-0  17838-3 0  9998
2 45388  53.0554  67.9554 0001438  82.0100 278.1052 15.06405708200086
1 45388U 20019AE  23304.61128487  .00002809  00000-0  20735-3 0  9998
2 45388  53.0551  67.6597 0001358  85.7289 274.3855 15.06407557200089
1 45388U 20019AE  23304.74397837  .00004347  00000-0  31045-3 0  9994
2 45388  53.0547  67.0630 0001327  81.9768 278.1371 15.06408722200105
1 45388U 20019AE  23305.07571600  .00001477  00000-0  11807-3 0  9998
2 45388  53.0545  65.5693 0001495 101.5886 258.5271 15.06397966200165
1 45388U 20019AE  23305.60648977  .00004597  00000-0  32723-3 0  9995
2 45388  53.0540  63.1901 0001347  89.0974 271.0169 15.06405768200234
1 45388U 20019AE  23306.53535127  .00000811  00000-0  73373-4 0  9992
2 45388  53.0552  59.0173 0001510 103.0163 257.0995 15.06394418200387
1 45388U 20019AE  23306.60169784  .00000239  00000-0  34946-4 0  9999
2 45388  53.0553  58.7205 0001362  92.3616 267.7529 15.06395506200388
1 45388U 20019AE  23307.46422543 -.00004550  00000-0 -28703-3 0  9994
2 45388  53.0540  54.8508 0001407  78.3120 281.8026 15.06369210200529
1 45388U 20019AE  23307.59692206 -.00002464  00000-0 -14666-3 0  9998
2 45388  53.0539  54.2572 0001397  83.8327 276.2821 15.06374274200538
1 45388U 20019AE  23307.72961411 -.00001963  00000-0 -11296-3 0  9999
2 45388  53.0543  53.6595 0001404  82.1913 277.9235 15.06379093200556
1 45388U 20019AE  23307.72961411 -.00001963  00000-0 -11296-3 0  9999
2 45388  53.0543  53.6595 0001404  82.1913 277.9235 15.06379093200567
1 45388U 20019AE  23308.45943421  .00012303  00000-0  84346-3 0  9995
2 45388  53.0544  50.3838 0001399  82.9728 277.1420 15.06397765200673
1 45388U 20019AE  23308.59212701  .00019398  00000-0  13172-2 0  9999
2 45388  53.0545  49.7881 0001388  80.6867 279.4279 15.06410955200686
1 45388U 20019AE  23309.58732276  .00007379  00000-0  51351-3 0  9991
2 45388  53.0539  45.3212 0001356  85.7646 274.3497 15.06415480200836
1 45388U 20019AE  23309.58732276  .00007379  00000-0  51351-3 0  9991
2 45388  53.0539  45.3212 0001356  85.7646 274.3497 15.06415480200847
1 45388U 20019AE  23310.58250638 -.00022259  00000-0 -14808-2 0  9991
2 45388  53.0541  40.8532 0001368  95.4838 264.6307 15.06382121200981
1 45388U 20019AE  23310.58250638 -.00022259  00000-0 -14808-2 0  9991
2 45388  53.0541  40.8532 0001368  95.4838 264.6307 15.06382121200992
1 45388U 20019AE  23310.98059045 -.00006873  00000-0 -44304-3 0  9993
2 45388  53.0567  39.0635 0001156 115.8613 244.2495 15.06392868201056
1 45388U 20019AE  23311.51136800  .00017276  00000-0  11752-2 0  9995
2 45388  53.0560  36.6832 0001888  83.1812 276.9391 15.06420669201127
1 45388U 20019AE  23311.51136800  .00017276  00000-0  11752-2 0  9995
2 45388  53.0560  36.6832 0001888  83.1812 276.9391 15.06420669201138
1 45388U 20019AE  23311.97580542 -.00108634  00000-0 -74155-2 0  9998
2 45388  53.0551  34.6068 0001005 290.6666  69.4215 15.06254955201201
1 45388U 20019AE  23312.50657278  .00006019  00000-0  42253-3 0  9996
2 45388  53.0552  32.2157 0001673  79.2654 280.8523 15.06406867201273
1 45388U 20019AE  23312.50657278  .00006019  00000-0  42253-3 0  9996
2 45388  53.0552  32.2157 0001673  79.2654 280.8523 15.06406867201284
1 45388U 20019AE  23313.50178508 -.00001143  00000-0 -57886-4 0  9995
2 45388  53.0563  27.7480 0001770  97.9605 262.1585 15.06383556201421
1 45388U 20019AE  23313.50178508 -.00001143  00000-0 -57886-4 0  9995
2 45388  53.0563  27.7480 0001770  97.9605 262.1585 15.06383556201432
1 45388U 20019AE  23314.49698550  .00002982  00000-0  21900-3 0  9995
2 45388  53.0558  23.2809 0001372  64.7204 295.3927 15.06397868201571
1 45388U 20019AE  23314.49698550  .00002982  00000-0  21900-3 0  9995
2 45388  53.0558  23.2809 0001372  64.7204 295.3927 15.06397868201582
1 45388U 20019AE  23314.89506903 -.00000500  00000-0 -14695-4 0  9999
2 45388  53.0553  21.4944 0001408  84.7020 275.4130 15.06393021201633
1 45388U 20019AE  23314.96141947  .00000555  00000-0  56136-4 0  9994
2 45388  53.0558  21.1978 0001470  91.4309 268.6849 15.06388918201658
1 45388U 20019AE  23315.49220234  .00001185  00000-0  98444-4 0  9998
2 45388  53.0563  18.8150 0001497  93.3472 266.7688 15.06384010201727
1 45388U 20019AE  23315.49220234  .00001185  00000-0  98444-4 0  9998
2 45388  53.0563  18.8150 0001497  93.3472 266.7688 15.06384010201738
1 45388U 20019AE  23315.95661975 -.00000270  00000-0  79346-6 0  9997
2 45388  53.0563  16.7300 0001430  93.6501 266.4652 15.06403737201809
1 45388U 20019AE  23316.55373413  .00002046  00000-0  15619-3 0  9993
2 45388  53.0563  14.0499 0001478  91.8097 268.3062 15.06406400201885
1 45388U 20019AE  23316.88547882  .00000783  00000-0  71475-4 0  9991
2 45388  53.0563  12.5606 0001618  85.0812 275.0362 15.06393787201931
1 45388U 20019AE  23316.88547882  .00000783  00000-0  71475-4 0  9991
2 45388  53.0563  12.5606 0001618  85.0812 275.0362 15.06393787201942
1 45388U 20019AE  23317.54894838  .00000721  00000-0  67325-4 0  9992
2 45388  53.0553   9.5785 0001471  92.0706 268.0451 15.06395490202037
1 45388U 20019AE  23317.88067682  .00001220  00000-0  10079-3 0  9996
2 45388  53.0561   8.0917 0001508  90.5953 269.5208 15.06403322202080
1 45388U 20019AE  23318.14605675  .00001119  00000-0  93955-4 0  9998
2 45388  53.0568   6.8983 0001501 111.3721 248.7428 15.06411382202138
1 45388U 20019AE  23318.41143934  .00002027  00000-0  15485-3 0  9993
2 45388  53.0562   5.7081 0001429  95.4232 264.6920 15.06416380202167
1 45388U 20019AE  23319.14126702  .00000405  00000-0  46090-4 0  9993
2 45388  53.0553   2.4322 0001444  87.3717 272.7437 15.06394330202280
1 45388U 20019AE  23319.40665823 -.00000157  00000-0  83425-5 0  9993
2 45388  53.0564   1.2410 0001390  86.2479 273.8669 15.06393580202319
1 45388U 20019AE  23319.80473661  .00000196  00000-0  32082-4 0  9998
2 45388  53.0565 359.4538 0001393  86.6462 273.4687 15.06397095202375
1 45388U 20019AE  23320.33550439 -.00000313  00000-0 -21130-5 0  9993
2 45388  53.0566 357.0711 0001469  89.2925 270.8232 15.06406528202469
1 45388U 20019AE  23320.40185033 -.00000287  00000-0 -40110-6 0  9995
2 45388  53.0567 356.7733 0001488  89.8297 270.2863 15.06406866202468
1 45388U 20019AE  23320.79993456 -.00001005  00000-0 -48570-4 0  9998
2 45388  53.0564 354.9856 0001472  84.5205 275.5952 15.06402498202526
1 45388U 20019AE  23320.79993456 -.00001005  00000-0 -48570-4 0  9998
2 45388  53.0564 354.9856 0001472  84.5205 275.5952 15.06402498202537
1 45388U 20019AE  23321.39707064  .00000101  00000-0  25657-4 0  9998
2 45388  53.0563 352.3062 0001494  92.2253 267.8907 15.06382863202627
1 45388U 20019AE  23321.52976626 -.00000062  00000-0  14772-4 0  9998
2 45388  53.0563 351.7108 0001485  90.8172 269.2987 15.06382039202635
1 45388U 20019AE  23321.79515869 -.00000807  00000-0 -35331-4 0  9997
2 45388  53.0558 350.5192 0001467  86.9608 273.1549 15.06380398202677
1 45388U 20019AE  23322.45862665 -.00000656  00000-0 -25139-4 0  9997
2 45388  53.0558 347.5412 0001514  89.1079 271.0083 15.06388596202777
1 45388U 20019AE  23322.45862665 -.00000656  00000-0 -25139-4 0  9997
2 45388  53.0558 347.5412 0001514  89.1079 271.0083 15.06388596202788
1 45388U 20019AE  23323.32113714  .00001473  00000-0  11780-3 0  9990
2 45388  53.0549 343.6684 0001436  86.0317 274.0837 15.06387755202900
1 45388U 20019AE  23323.78556315  .00002020  00000-0  15450-3 0  9995
2 45388  53.0550 341.5834 0001446  86.2720 273.8434 15.06392689202976
1 45388U 20019AE  23323.78556315  .00002020  00000-0  15450-3 0  9995
2 45388  53.0550 341.5834 0001446  86.2720 273.8434 15.06392689202987
1 45388U 20019AE  23324.31633403  .00002446  00000-0  18307-3 0  9995
2 45388  53.0554 339.2003 0001526  84.7215 275.3948 15.06400044203055
1 45388U 20019AE  23324.31633403  .00002446  00000-0  18307-3 0  9995
2 45388  53.0554 339.2003 0001526  84.7215 275.3948 15.06400044203066
1 45388U 20019AE  23325.44423442  .00000152  00000-0  29119-4 0  9996
2 45388  53.0553 334.1370 0001503  83.6932 276.4228 15.06398594203222
1 45388U 20019AE  23325.44423442  .00000152  00000-0  29119-4 0  9996
2 45388  53.0553 334.1370 0001503  83.6932 276.4228 15.06398594203233
1 45388U 20019AE  23326.17403910  .00000678  00000-0  64395-4 0  9993
2 45388  53.0555 330.8610 0001532  84.6432 275.4732 15.06410521203349
1 45388U 20019AE  23326.24038341  .00000980  00000-0  84664-4 0  9990
2 45388  53.0556 330.5632 0001553  85.0744 275.0422 15.06413093203344
1 45388U 20019AE  23327.16924784  .00000348  00000-0  42264-4 0  9995
2 45388  53.0557 326.3938 0001579  85.3687 274.7482 15.06397269203498
1 45388U 20019AE  23327.23559423  .00000373  00000-0  43923-4 0  9998
2 45388  53.0555 326.0959 0001589  85.6018 274.5152 15.06397581203497
1 45388U 20019AE  23328.16443432  .00000878  00000-0  77787-4 0  9998
2 45388  53.0561 321.9272 0001619  83.0407 277.0766 15.06414946203645
1 45388U 20019AE  23328.36346760  .00001761  00000-0  13703-3 0  9995
2 45388  53.0554 321.0312 0001682  93.8846 266.2335 15.06420024203667
